LANDSAT 9               
1 49260U 21088A   24010.20144065  .00000599  00000+0  14302-3 0  9994
2 49260  98.2080  82.3696 0001130  85.1487 274.9841 14.57103861121546
